BEIDOU-2 IGSO-3         
1 37384U 11013A   24315.99665684 -.00000198  00000+0  00000+0 0  9996
2 37384  61.5701  45.7031 0032090 179.3777 292.1573  1.00271437 49818
INTELSAT 28 (IS-28)     
1 37392U 11016A   24316.51044559  .00000165  00000+0  00000+0 0  9992
2 37392   0.2915  90.6338 0003085 143.3742  33.7179  1.00270474 47446
YAHSAT 1A               
1 37393U 11016B   24316.51435521  .00000110  00000+0  00000+0 0  9996
2 37393   0.0128 266.6724 0002940   2.7797  19.3621  1.00270389 36560
SBIRS GEO-1 (USA 230)   
1 37481U 11019A   24316.51696163  .00000006  00000+0  00000+0 0  9992
2 37481   3.2881  50.5125 0002143 187.3284  65.1325  1.00271860 49558
TELSTAR 14R             
1 37602U 11021A   24316.27691083 -.00000271  00000+0  00000+0 0  9994
2 37602   0.0019  45.1608 0000980 241.9715 160.4964  1.00270553 49983
GSAT-8                  
1 37605U 11022A   24316.51487649  .00000094  00000+0  00000+0 0  9998
2 37605   0.6171  89.2074 0008345 163.1840  39.2042  1.00271297 47371
ST-2                    
1 37606U 11022B   24316.30697149 -.00000203  00000+0  00000+0 0  9997
2 37606   0.0038 259.4392 0001650   2.8721 347.1878  1.00270274 49432
ZHONGXING-10            
1 37677U 11026A   24316.57063404 -.00000343  00000+0  00000+0 0  9994
2 37677   0.0366 265.8010 0004564 286.7217 174.6402  1.00269005 49157
SES-3                   
1 37748U 11035A   24316.55492840 -.00000093  00000+0  00000+0 0  9993
2 37748   0.0238 315.6174 0002896 291.6498 260.7176  1.00273949 48753
KAZSAT-2                
1 37749U 11035B   24316.30653709 -.00000189  00000+0  00000+0 0  9996
2 37749   0.0149 286.0665 0000931 344.2521 337.4827  1.00272854 47546
BEIDOU-2 IGSO-4         
1 37763U 11038A   24315.57626767  .00000028  00000+0  00000+0 0  9998
2 37763  54.5613 170.8859 0129461 228.5325 314.5213  1.00276979 48787
ASTRA 1N                
1 37775U 11041A   24316.41021701  .00000129  00000+0  00000+0 0  9998
2 37775   0.0880  53.2632 0000942 206.5343 318.1527  1.00270838 38687
BSAT-3C (JCSAT-110R)    
1 37776U 11041B   24316.57063404 -.00000342  00000+0  00000+0 0  9990
2 37776   0.0272  86.6068 0000403   7.5497 272.4635  1.00272336 44636
PAKSAT-1R               
1 37779U 11042A   24316.51148816  .00000163  00000+0  00000+0 0  9999
2 37779   0.0196  87.6782 0001061 221.9901 323.5718  1.00271281 48633
SES-2                   
1 37809U 11049A   24316.55814299 -.00000187  00000+0  00000+0 0  9996
2 37809   0.0160 313.7613 0002587 278.1521 293.2392  1.00271961 48120
ARABSAT-5C              
1 37810U 11049B   24316.50792605  .00000132  00000+0  00000+0 0  9998
2 37810   0.0527 343.8237 0006276 233.6748  36.5215  1.00270843 48198
EUTELSAT 7 WEST A       
1 37816U 11051A   24316.21609451 -.00000051  00000+0  00000+0 0  9992
2 37816   0.0671 341.2598 0007115 233.4976 266.6143  1.00271823 48050
QUETZSAT 1              
1 37826U 11054A   24316.48863859 -.00000232  00000+0  00000+0 0  9990
2 37826   0.0219  46.7227 0002404 200.6321 262.6755  1.00270199 44046
INTELSAT 18 (IS-18)     
1 37834U 11056A   24316.57789407  .00000062  00000+0  00000+0 0  9997
2 37834   0.0149 284.0894 0002052 297.3993 217.7901  1.00272068 47966
EUTELSAT 16A            
1 37836U 11057A   24316.50697038  .00000113  00000+0  00000+0 0  9998
2 37836   0.0737  18.4404 0005757 220.7397  10.4901  1.00273244  1482
VIASAT-1                
1 37843U 11059A   24316.40957733 -.00000015  00000+0  00000+0 0  9990
2 37843   0.0149 276.5247 0002040 310.0143 216.8664  1.00271070 41479
ASIASAT 7               
1 37933U 11069A   24316.57619118 -.00000325  00000+0  00000+0 0  9995
2 37933   0.0261 218.6602 0001606 357.9696 147.5520  1.00271225 39016
BEIDOU-2 IGSO-5         
1 37948U 11073A   24315.84875691 -.00000168  00000+0  00000+0 0  9990
2 37948  48.7478 278.7253 0101690 222.1715 309.6791  1.00259067 47288
LUCH-5A                 
1 37951U 11074B   24316.56435130 -.00000033  00000+0  00000+0 0  9996
2 37951   7.2620  82.6353 0004552 139.7477 199.1105  1.00274178 47204
NIGCOMSAT 1R            
1 38014U 11077A   24316.58385962  .00000154  00000+0  00000+0 0  9992
2 38014   0.0123 242.4751 0003731  46.0853  15.3626  1.00269483 47118
FENGYUN 2F              
1 38049U 12002A   24316.52677267 -.00000240  00000+0  00000+0 0  9992
2 38049   6.1056  72.5183 0002643 153.4039 177.0451  0.99140811 47021
WGS F4 (USA 233)        
1 38070U 12003A   24316.44997677 -.00000206  00000+0  00000+0 0  9990
2 38070   0.0041  40.1705 0000408 243.1121  18.2219  1.00267059 38305
SES-4                   
1 38087U 12007A   24316.43243966 -.00000159  00000+0  00000+0 0  9993
2 38087   0.0215  26.9075 0002488 208.3734 309.5015  1.00272636 46385
BEIDOU-2 G5             
1 38091U 12008A   24316.50604733  .00000066  00000+0  00000+0 0  9996
2 38091   2.1209  70.8246 0009865 220.5279   0.7344  1.00274517 46521
MUOS-1                  
1 38093U 12009A   24316.26961287 -.00000117  00000+0  00000+0 0  9990
2 38093   4.3168  45.8073 0049773 359.4854   2.7707  1.00271779 46605
INTELSAT 22 (IS-22)     
1 38098U 12011A   24316.23660494 -.00000050  00000+0  00000+0 0  9997
2 38098   0.0139 111.0890 0001949 131.7131 325.3542  1.00271477  1344
APSTAR-7                
1 38107U 12013A   24316.51913363 -.00000092  00000+0  00000+0 0  9993
2 38107   0.0150  83.2366 0002743 161.1516  70.1458  1.00268901 45968
YAHSAT 1B               
1 38245U 12016A   24316.44189689  .00000135  00000+0  00000+0 0  9994
2 38245   0.0753  91.6678 0002267 164.9341   1.1880  1.00270450 39752
AEHF-2 (USA 235)        
1 38254U 12019A   24316.14320313 -.00000123  00000+0  00000+0 0  9993
2 38254   5.2985  61.0522 0002769 162.7627 222.0884  1.00271169  1143
JCSAT-13                
1 38331U 12023A   24316.22341105 -.00000347  00000+0  00000+0 0  9993
2 38331   0.0188  89.0747 0002425 139.3922  26.8278  1.00268918 45720
VINASAT-2               
1 38332U 12023B   24316.38716219 -.00000320  00000+0  00000+0 0  9994
2 38332   0.0442  76.6211 0002208 151.5591  94.0934  1.00270854 40812
NIMIQ 6                 
1 38342U 12026A   24316.41435576 -.00000165  00000+0  00000+0 0  9993
2 38342   0.0157 295.0278 0002805 284.7928 249.3279  1.00271497 44570
ZHONGXING-2A            
1 38352U 12028A   24316.53868708 -.00000284  00000+0  00000+0 0  9998
2 38352   0.0174 283.6526 0001861 315.7670 103.9717  1.00272026 45458
INTELSAT 19 (IS-19)     
1 38356U 12030A   24316.52662880 -.00000048  00000+0  00000+0 0  9995
2 38356   0.0137 297.9922 0003104 297.5826 171.2011  1.00270429 44595
ECHOSTAR 17             
1 38551U 12035A   24316.55414649 -.00000066  00000+0  00000+0 0  9998
2 38551   0.0157 265.8714 0002451 327.5305 270.1749  1.00270536 45224
METEOSAT-10 (MSG-3)     
1 38552U 12035B   24316.28942163  .00000005  00000+0  00000+0 0  9998
2 38552   3.2997  61.7073 0001191 224.6801 228.7852  1.00273420 45017
SES-5                   
1 38652U 12036A   24316.29046420  .00000043  00000+0  00000+0 0  9994
2 38652   0.0645 295.6336 0002096 294.8628 290.0068  1.00270779 38639
INTELSAT 20 (IS-20)     
1 38740U 12043A   24316.37479949 -.00000016  00000+0  00000+0 0  9996
2 38740   0.0097 262.8848 0002640 283.5164  68.0543  1.00271576 44901
HYLAS 2                 
1 38741U 12043B   24316.57132814 -.00000252  00000+0  00000+0 0  9998
2 38741   0.9160  88.2426 0003656 172.1135 139.0494  1.00271609 44926
INTELSAT 21 (IS-21)     
1 38749U 12045A   24316.49237444 -.00000276  00000+0  00000+0 0  9990
2 38749   0.0146  75.4702 0003122 167.0338 287.8802  1.00268100 44680
ASTRA 2F                
1 38778U 12051A   24316.50931615  .00000159  00000+0  00000+0 0  9991
2 38778   0.0350 246.3092 0004590 346.7850  29.6332  1.00272846 35294
GSAT-10                 
1 38779U 12051B   24316.44893420 -.00000157  00000+0  00000+0 0  9995
2 38779   0.0123 277.4561 0003406 206.6020 171.6481  1.00272661 44262
INTELSAT 23 (IS-23)     
1 38867U 12057A   24316.32896861 -.00000275  00000+0  00000+0 0  9999
2 38867   0.0212 235.5723 0000660 138.6733 102.1609  1.00277766 44103
BEIDOU-2 G6             
1 38953U 12059A   24316.52061060 -.00000164  00000+0  00000+0 0  9991
2 38953   2.9336  79.2837 0006725 290.7887 312.4970  1.00268005 44062
LUCH-5B                 
1 38977U 12061A   24316.07170049 -.00000125  00000+0  00000+0 0  9995
2 38977   9.2110  55.3907 0006674 164.3643 200.4580  1.00271383 43762
YAMAL 300K              
1 38978U 12061B   24316.58067679  .00000080  00000+0  00000+0 0  9995
2 38978   0.0146 288.3435 0001132 357.5916 157.3010  1.00271419 43788
STAR ONE C3             
1 38991U 12062A   24316.41757035 -.00000240  00000+0  00000+0 0  9994
2 38991   0.0121 283.8451 0002080 301.4373 261.1052  1.00268159 43914
EUTELSAT 21B            
1 38992U 12062B   24316.50818670  .00000139  00000+0  00000+0 0  9994
2 38992   0.0739  18.6804 0002894 218.0805  18.9426  1.00273425 43984
ECHOSTAR 16             
1 39008U 12065A   24316.49167940 -.00000273  00000+0  00000+0 0  9991
2 39008   0.0165 273.5336 0002538 326.1240 286.9728  1.00271517 43787
ZHONGXING-12            
1 39017U 12067A   24316.52413353 -.00000197  00000+0  00000+0 0  9994
2 39017   0.0139  86.4123 0003348 150.0886  90.8350  1.00268154 43666
EUTELSAT 70B            
1 39020U 12069A   24316.51774355 -.00000035  00000+0  00000+0 0  9992
2 39020   0.0703  21.4299 0004410 207.2315  79.3970  1.00271995 43660
YAMAL 402               
1 39022U 12070A   24316.51478962  .00000095  00000+0  00000+0 0  9996
2 39022   0.0123 259.3052 0005181 340.4871  51.5672  1.00270665 43552
SKYNET 5D               
1 39034U 12075A   24316.51444209  .00000108  00000+0  00000+0 0  9996
2 39034   0.0749  17.4848 0003881 215.2957  56.3517  1.00273169 43311
MEXSAT 3                
1 39035U 12075B   24316.55258263 -.00000016  00000+0  00000+0 0  9993
2 39035   0.0062  85.7808 0002318 142.8488 266.7037  1.00271252  1210
